MAKERSAT 0              
1 43016U 17073D   26068.63673096  .00023659  00000+0  71590-3 0  9993
2 43016  97.4777 310.6155 0115258 266.0743  92.7313 15.27797199451246
STARLINK-31433          
1 59243U 24049N   26067.62118094 -.00000658  00000+0 -14393-4 0  9998
2 59243  43.0018 149.4846 0001332 233.1987 126.8743 15.27571687112249
